[
  {
    "OBJECT_NAME": "STARLINK-34656",
    "OBJECT_ID": "25161T",
    "EPOCH": "2025-11-11T02:59:19.912128",
    "MEAN_MOTION": 15.30185189,
    "ECCENTRICITY": 0.0001392,
    "INCLINATION": 53.1587,
    "RA_OF_ASC_NODE": 125.1644,
    "ARG_OF_PERICENTER": 90.0615,
    "MEAN_ANOMALY": 270.0545,
    "EPHEMERIS_TYPE": 0,
    "CLASSIFICATION_TYPE": "U",
    "NORAD_CAT_ID": 65032,
    "ELEMENT_SET_NO": 999,
    "REV_AT_EPOCH": 1717,
    "BSTAR": 0.0015872,
    "MEAN_MOTION_DOT": 0.00046926,
    "MEAN_MOTION_DDOT": 0.0,
    "TLE_LINE1": "1 65032U 25161T   25315.12453602  .00046926  00000+0  15872-2 0  9991",
    "TLE_LINE2": "2 65032  53.1587 125.1644 0001392  90.0615 270.0545 15.30185189 17176",
    "COMMENT": "Grouped by shell and plane from TLE"
  },
  {
    "OBJECT_NAME": "STARLINK-34671",
    "OBJECT_ID": "25161U",
    "EPOCH": "2025-11-10T20:55:16.022208",
    "MEAN_MOTION": 15.30221847,
    "ECCENTRICITY": 6.12e-05,
    "INCLINATION": 53.1598,
    "RA_OF_ASC_NODE": 126.4302,
    "ARG_OF_PERICENTER": 75.685,
    "MEAN_ANOMALY": 284.4218,
    "EPHEMERIS_TYPE": 0,
    "CLASSIFICATION_TYPE": "U",
    "NORAD_CAT_ID": 65033,
    "ELEMENT_SET_NO": 999,
    "REV_AT_EPOCH": 1603,
    "BSTAR": 0.0017577,
    "MEAN_MOTION_DOT": 0.000521,
    "MEAN_MOTION_DDOT": 0.0,
    "TLE_LINE1": "1 65033U 25161U   25314.87171322  .00052100  00000+0  17577-2 0  9994",
    "TLE_LINE2": "2 65033  53.1598 126.4302 0000612  75.6850 284.4218 15.30221847 16030",
    "COMMENT": "Grouped by shell and plane from TLE"
  },
  {
    "OBJECT_NAME": "STARLINK-34610",
    "OBJECT_ID": "25161V",
    "EPOCH": "2025-11-11T04:13:36.999552",
    "MEAN_MOTION": 15.30229511,
    "ECCENTRICITY": 2.15e-05,
    "INCLINATION": 53.1524,
    "RA_OF_ASC_NODE": 124.775,
    "ARG_OF_PERICENTER": 351.0979,
    "MEAN_ANOMALY": 9.0018,
    "EPHEMERIS_TYPE": 0,
    "CLASSIFICATION_TYPE": "U",
    "NORAD_CAT_ID": 65034,
    "ELEMENT_SET_NO": 999,
    "REV_AT_EPOCH": 1608,
    "BSTAR": 0.0014547,
    "MEAN_MOTION_DOT": 0.00043014,
    "MEAN_MOTION_DDOT": 0.0,
    "TLE_LINE1": "1 65034U 25161V   25315.17612268  .00043014  00000+0  14547-2 0  9996",
    "TLE_LINE2": "2 65034  53.1524 124.7750 0000215 351.0979   9.0018 15.30229511 16080",
    "COMMENT": "Grouped by shell and plane from TLE"
  },
  {
    "OBJECT_NAME": "STARLINK-34286",
    "OBJECT_ID": "25161W",
    "EPOCH": "2025-11-10T18:37:10.194816",
    "MEAN_MOTION": 15.30193402,
    "ECCENTRICITY": 0.000133,
    "INCLINATION": 53.1555,
    "RA_OF_ASC_NODE": 126.5414,
    "ARG_OF_PERICENTER": 97.3092,
    "MEAN_ANOMALY": 262.806,
    "EPHEMERIS_TYPE": 0,
    "CLASSIFICATION_TYPE": "U",
    "NORAD_CAT_ID": 65035,
    "ELEMENT_SET_NO": 999,
    "REV_AT_EPOCH": 1602,
    "BSTAR": 0.00065205,
    "MEAN_MOTION_DOT": 0.00018998,
    "MEAN_MOTION_DDOT": 0.0,
    "TLE_LINE1": "1 65035U 25161W   25314.77581244  .00018998  00000+0  65205-3 0  9992",
    "TLE_LINE2": "2 65035  53.1555 126.5414 0001330  97.3092 262.8060 15.30193402 16026",
    "COMMENT": "Grouped by shell and plane from TLE"
  },
  {
    "OBJECT_NAME": "STARLINK-34770",
    "OBJECT_ID": "25161X",
    "EPOCH": "2025-11-11T04:28:48.896256",
    "MEAN_MOTION": 15.30219007,
    "ECCENTRICITY": 0.0001232,
    "INCLINATION": 53.1577,
    "RA_OF_ASC_NODE": 124.8406,
    "ARG_OF_PERICENTER": 94.1778,
    "MEAN_ANOMALY": 265.9364,
    "EPHEMERIS_TYPE": 0,
    "CLASSIFICATION_TYPE": "U",
    "NORAD_CAT_ID": 65036,
    "ELEMENT_SET_NO": 999,
    "REV_AT_EPOCH": 1608,
    "BSTAR": 0.00077271,
    "MEAN_MOTION_DOT": 0.00022609,
    "MEAN_MOTION_DDOT": 0.0,
    "TLE_LINE1": "1 65036U 25161X   25315.18667704  .00022609  00000+0  77271-3 0  9995",
    "TLE_LINE2": "2 65036  53.1577 124.8406 0001232  94.1778 265.9364 15.30219007 16087",
    "COMMENT": "Grouped by shell and plane from TLE"
  },
  {
    "OBJECT_NAME": "STARLINK-34776",
    "OBJECT_ID": "25161Y",
    "EPOCH": "2025-11-10T20:32:28.434624",
    "MEAN_MOTION": 15.30232454,
    "ECCENTRICITY": 7.01e-05,
    "INCLINATION": 53.1546,
    "RA_OF_ASC_NODE": 126.3319,
    "ARG_OF_PERICENTER": 43.5503,
    "MEAN_ANOMALY": 316.5553,
    "EPHEMERIS_TYPE": 0,
    "CLASSIFICATION_TYPE": "U",
    "NORAD_CAT_ID": 65037,
    "ELEMENT_SET_NO": 999,
    "REV_AT_EPOCH": 1603,
    "BSTAR": 0.0016324,
    "MEAN_MOTION_DOT": 0.00048352,
    "MEAN_MOTION_DDOT": 0.0,
    "TLE_LINE1": "1 65037U 25161Y   25314.85588466  .00048352  00000+0  16324-2 0  9990",
    "TLE_LINE2": "2 65037  53.1546 126.3319 0000701  43.5503 316.5553 15.30232454 16037",
    "COMMENT": "Grouped by shell and plane from TLE"
  },
  {
    "OBJECT_NAME": "STARLINK-34827",
    "OBJECT_ID": "25161Z",
    "EPOCH": "2025-11-11T06:30:03.607776",
    "MEAN_MOTION": 15.30216589,
    "ECCENTRICITY": 0.0001401,
    "INCLINATION": 53.1592,
    "RA_OF_ASC_NODE": 123.9398,
    "ARG_OF_PERICENTER": 83.873,
    "MEAN_ANOMALY": 276.243,
    "EPHEMERIS_TYPE": 0,
    "CLASSIFICATION_TYPE": "U",
    "NORAD_CAT_ID": 65038,
    "ELEMENT_SET_NO": 999,
    "REV_AT_EPOCH": 1610,
    "BSTAR": 0.00091589,
    "MEAN_MOTION_DOT": 0.00026879,
    "MEAN_MOTION_DDOT": 0.0,
    "TLE_LINE1": "1 65038U 25161Z   25315.27087509  .00026879  00000+0  91589-3 0  9997",
    "TLE_LINE2": "2 65038  53.1592 123.9398 0001401  83.8730 276.2430 15.30216589 16101",
    "COMMENT": "Grouped by shell and plane from TLE"
  },
  {
    "OBJECT_NAME": "STARLINK-34721",
    "OBJECT_ID": "25161AA",
    "EPOCH": "2025-11-11T04:52:58.314144",
    "MEAN_MOTION": 15.3021035,
    "ECCENTRICITY": 0.0002234,
    "INCLINATION": 53.1595,
    "RA_OF_ASC_NODE": 124.2292,
    "ARG_OF_PERICENTER": 89.6618,
    "MEAN_ANOMALY": 270.4639,
    "EPHEMERIS_TYPE": 0,
    "CLASSIFICATION_TYPE": "U",
    "NORAD_CAT_ID": 65039,
    "ELEMENT_SET_NO": 999,
    "REV_AT_EPOCH": 1609,
    "BSTAR": 0.0011042,
    "MEAN_MOTION_DOT": 0.00032499,
    "MEAN_MOTION_DDOT": 0.0,
    "TLE_LINE1": "1 65039U 25161AA  25315.20345271  .00032499  00000+0  11042-2 0  9994",
    "TLE_LINE2": "2 65039  53.1595 124.2292 0002234  89.6618 270.4639 15.30210350 16091",
    "COMMENT": "Grouped by shell and plane from TLE"
  },
  {
    "OBJECT_NAME": "STARLINK-34819",
    "OBJECT_ID": "25161AB",
    "EPOCH": "2025-11-11T04:50:04.913664",
    "MEAN_MOTION": 15.30241489,
    "ECCENTRICITY": 8.66e-05,
    "INCLINATION": 53.1638,
    "RA_OF_ASC_NODE": 124.928,
    "ARG_OF_PERICENTER": 280.9033,
    "MEAN_ANOMALY": 79.187,
    "EPHEMERIS_TYPE": 0,
    "CLASSIFICATION_TYPE": "U",
    "NORAD_CAT_ID": 65040,
    "ELEMENT_SET_NO": 999,
    "REV_AT_EPOCH": 1608,
    "BSTAR": 0.0015039,
    "MEAN_MOTION_DOT": 0.00044506,
    "MEAN_MOTION_DDOT": 0.0,
    "TLE_LINE1": "1 65040U 25161AB  25315.20144576  .00044506  00000+0  15039-2 0  9993",
    "TLE_LINE2": "2 65040  53.1638 124.9280 0000866 280.9033  79.1870 15.30241489 16088",
    "COMMENT": "Grouped by shell and plane from TLE"
  },
  {
    "OBJECT_NAME": "STARLINK-34820",
    "OBJECT_ID": "25161AC",
    "EPOCH": "2025-11-10T21:33:05.030496",
    "MEAN_MOTION": 15.30240418,
    "ECCENTRICITY": 6.81e-05,
    "INCLINATION": 53.1602,
    "RA_OF_ASC_NODE": 125.881,
    "ARG_OF_PERICENTER": 78.2947,
    "MEAN_ANOMALY": 281.8131,
    "EPHEMERIS_TYPE": 0,
    "CLASSIFICATION_TYPE": "U",
    "NORAD_CAT_ID": 65041,
    "ELEMENT_SET_NO": 999,
    "REV_AT_EPOCH": 1604,
    "BSTAR": 0.001173,
    "MEAN_MOTION_DOT": 0.00034587,
    "MEAN_MOTION_DDOT": 0.0,
    "TLE_LINE1": "1 65041U 25161AC  25314.89797489  .00034587  00000+0  11730-2 0  9997",
    "TLE_LINE2": "2 65041  53.1602 125.8810 0000681  78.2947 281.8131 15.30240418 16045",
    "COMMENT": "Grouped by shell and plane from TLE"
  },
  {
    "OBJECT_NAME": "STARLINK-34824",
    "OBJECT_ID": "25161AD",
    "EPOCH": "2025-11-10T21:20:56.399424",
    "MEAN_MOTION": 15.30227411,
    "ECCENTRICITY": 6.51e-05,
    "INCLINATION": 53.1597,
    "RA_OF_ASC_NODE": 125.8281,
    "ARG_OF_PERICENTER": 62.3898,
    "MEAN_ANOMALY": 297.7169,
    "EPHEMERIS_TYPE": 0,
    "CLASSIFICATION_TYPE": "U",
    "NORAD_CAT_ID": 65042,
    "ELEMENT_SET_NO": 999,
    "REV_AT_EPOCH": 1604,
    "BSTAR": 0.0019188,
    "MEAN_MOTION_DOT": 0.00056953,
    "MEAN_MOTION_DDOT": 0.0,
    "TLE_LINE1": "1 65042U 25161AD  25314.88954166  .00056953  00000+0  19188-2 0  9990",
    "TLE_LINE2": "2 65042  53.1597 125.8281 0000651  62.3898 297.7169 15.30227411 16042",
    "COMMENT": "Grouped by shell and plane from TLE"
  },
  {
    "OBJECT_NAME": "STARLINK-35208",
    "OBJECT_ID": "25223A",
    "EPOCH": "2025-11-10T21:38:22.454592",
    "MEAN_MOTION": 15.39691796,
    "ECCENTRICITY": 2.31e-05,
    "INCLINATION": 53.1609,
    "RA_OF_ASC_NODE": 127.7095,
    "ARG_OF_PERICENTER": 240.7876,
    "MEAN_ANOMALY": 119.3106,
    "EPHEMERIS_TYPE": 0,
    "CLASSIFICATION_TYPE": "U",
    "NORAD_CAT_ID": 65854,
    "ELEMENT_SET_NO": 999,
    "REV_AT_EPOCH": 599,
    "BSTAR": 0.0016081000000000001,
    "MEAN_MOTION_DOT": 0.00064623,
    "MEAN_MOTION_DDOT": 0.0,
    "TLE_LINE1": "1 65854U 25223A   25314.90164878  .00064623  00000+0  16081-2 0  9998",
    "TLE_LINE2": "2 65854  53.1609 127.7095 0000231 240.7876 119.3106 15.39691796  5995",
    "COMMENT": "Grouped by shell and plane from TLE"
  },
  {
    "OBJECT_NAME": "STARLINK-35200",
    "OBJECT_ID": "25223B",
    "EPOCH": "2025-11-10T19:18:05.831424",
    "MEAN_MOTION": 15.39704675,
    "ECCENTRICITY": 7.72e-05,
    "INCLINATION": 53.1593,
    "RA_OF_ASC_NODE": 127.8093,
    "ARG_OF_PERICENTER": 102.6773,
    "MEAN_ANOMALY": 257.4319,
    "EPHEMERIS_TYPE": 0,
    "CLASSIFICATION_TYPE": "U",
    "NORAD_CAT_ID": 65855,
    "ELEMENT_SET_NO": 999,
    "REV_AT_EPOCH": 598,
    "BSTAR": 0.0026179000000000003,
    "MEAN_MOTION_DOT": 0.00106078,
    "MEAN_MOTION_DDOT": 0.0,
    "TLE_LINE1": "1 65855U 25223B   25314.80423416  .00106078  00000+0  26179-2 0  9994",
    "TLE_LINE2": "2 65855  53.1593 127.8093 0000772 102.6773 257.4319 15.39704675  5989",
    "COMMENT": "Grouped by shell and plane from TLE"
  }
]